[{"OBJECT_NAME":"LKW-3","OBJECT_ID":"2018-006A","EPOCH":"2026-03-09T23:35:48.740928","MEAN_MOTION":15.33087407,"ECCENTRICITY":0.00022503,"INCLINATION":97.6481,"RA_OF_ASC_NODE":225.9034,"ARG_OF_PERICENTER":308.148,"MEAN_ANOMALY":51.9559,"EPHEMERIS_TYPE":0,"CLASSIFICATION_TYPE":"U","NORAD_CAT_ID":43146,"ELEMENT_SET_NO":999,"REV_AT_EPOCH":45350,"BSTAR":0.00042518021,"MEAN_MOTION_DOT":0.00013518,"MEAN_MOTION_DDOT":0},{"OBJECT_NAME":"STARLINK-34421","OBJECT_ID":"2025-130X","EPOCH":"2026-02-26T14:23:06.194400","MEAN_MOTION":15.30192148,"ECCENTRICITY":0.0001089,"INCLINATION":53.1579,"RA_OF_ASC_NODE":140.1444,"ARG_OF_PERICENTER":89.4709,"MEAN_ANOMALY":270.6416,"EPHEMERIS_TYPE":0,"CLASSIFICATION_TYPE":"U","NORAD_CAT_ID":64459,"ELEMENT_SET_NO":999,"REV_AT_EPOCH":3900,"BSTAR":0.00099213,"MEAN_MOTION_DOT":0.00029133,"MEAN_MOTION_DDOT":0}]
